{
"type": "FeatureCollection",
"name": "cebu_itpark_amenities_1km",
"crs": { "type": "name", "properties": { "name": "urn:ogc:def:crs:OGC:1.3:CRS84" } },
"features": [
{ "type": "Feature", "properties": { "amenity": "bank", "name": "CTBC Bank" }, "geometry": { "type": "Point", "coordinates": [ 123.9044847, 10.3218608 ] } },
{ "type": "Feature", "properties": { "amenity": "bank", "name": "Bank of Commerce" }, "geometry": { "type": "Point", "coordinates": [ 123.911151, 10.3385481 ] } },
{ "type": "Feature", "properties": { "amenity": "pharmacy", "name": "Rose Pharmacy" }, "geometry": { "type": "Point", "coordinates": [ 123.9117042, 10.3387503 ] } },
{ "type": "Feature", "properties": { "amenity": "restaurant", "name": "Mikado Japanese Restuarant" }, "geometry": { "type": "Point", "coordinates": [ 123.904482, 10.32163 ] } },
{ "type": "Feature", "properties": { "amenity": "college", "name": "San Carlos Seminary College" }, "geometry": { "type": "Point", "coordinates": [ 123.9084972, 10.3233136 ] } },
{ "type": "Feature", "properties": { "amenity": "university", "name": "University of Cebu" }, "geometry": { "type": "Point", "coordinates": [ 123.911958, 10.3385463 ] } },
{ "type": "Feature", "properties": { "amenity": "restaurant", "name": "Plaza Pino" }, "geometry": { "type": "Point", "coordinates": [ 123.8997603, 10.3318629 ] } },
{ "type": "Feature", "properties": { "amenity": "fast_food", "name": "McDonald's" }, "geometry": { "type": "Point", "coordinates": [ 123.8982054, 10.3305938 ] } },
{ "type": "Feature", "properties": { "amenity": "pharmacy", "name": "Watsons" }, "geometry": { "type": "Point", "coordinates": [ 123.9109762, 10.3387184 ] } },
{ "type": "Feature", "properties": { "amenity": "bank", "name": "Landbank" }, "geometry": { "type": "Point", "coordinates": [ 123.9104282, 10.3335392 ] } },
{ "type": "Feature", "properties": { "amenity": "restaurant", "name": "Café George" }, "geometry": { "type": "Point", "coordinates": [ 123.909906, 10.3296615 ] } },
{ "type": "Feature", "properties": { "amenity": "fuel", "name": "Caltex" }, "geometry": { "type": "Point", "coordinates": [ 123.9084703, 10.323981 ] } },
{ "type": "Feature", "properties": { "amenity": "fast_food", "name": "Calda Pizza" }, "geometry": { "type": "Point", "coordinates": [ 123.9075939, 10.3253709 ] } },
{ "type": "Feature", "properties": { "amenity": "restaurant", "name": "Wakamatsu" }, "geometry": { "type": "Point", "coordinates": [ 123.9131797, 10.3218415 ] } },
{ "type": "Feature", "properties": { "amenity": "college", "name": "Banilad StudyCenter" }, "geometry": { "type": "Point", "coordinates": [ 123.9073399, 10.3234041 ] } },
{ "type": "Feature", "properties": { "amenity": "restaurant", "name": "Golden Cowrie" }, "geometry": { "type": "Point", "coordinates": [ 123.9026446, 10.3287846 ] } },
{ "type": "Feature", "properties": { "amenity": "pharmacy", "name": "Three Sixty Pharmacy" }, "geometry": { "type": "Point", "coordinates": [ 123.9030256, 10.3291162 ] } },
{ "type": "Feature", "properties": { "amenity": "pharmacy", "name": "ThreeSixty" }, "geometry": { "type": "Point", "coordinates": [ 123.8976366, 10.3301522 ] } },
{ "type": "Feature", "properties": { "amenity": "bank", "name": "BPI" }, "geometry": { "type": "Point", "coordinates": [ 123.9063472, 10.3283436 ] } },
{ "type": "Feature", "properties": { "amenity": "restaurant", "name": "Grand Convention" }, "geometry": { "type": "Point", "coordinates": [ 123.9042636, 10.3224271 ] } },
{ "type": "Feature", "properties": { "amenity": "nightclub", "name": "P.U.M.P. Disco Bar" }, "geometry": { "type": "Point", "coordinates": [ 123.9043628, 10.3225694 ] } },
{ "type": "Feature", "properties": { "amenity": "pub", "name": "Hikari" }, "geometry": { "type": "Point", "coordinates": [ 123.9004777, 10.3298705 ] } },
{ "type": "Feature", "properties": { "amenity": "bank", "name": "Chinabank" }, "geometry": { "type": "Point", "coordinates": [ 123.8989836, 10.3304826 ] } },
{ "type": "Feature", "properties": { "amenity": "marketplace", "name": null }, "geometry": { "type": "Point", "coordinates": [ 123.8979719, 10.3313114 ] } },
{ "type": "Feature", "properties": { "amenity": "fast_food", "name": "Sinangag Station" }, "geometry": { "type": "Point", "coordinates": [ 123.8977095, 10.3295353 ] } },
{ "type": "Feature", "properties": { "amenity": "restaurant", "name": null }, "geometry": { "type": "Point", "coordinates": [ 123.8992599, 10.3311608 ] } },
{ "type": "Feature", "properties": { "amenity": "fast_food", "name": "Jollibee" }, "geometry": { "type": "Point", "coordinates": [ 123.8980141, 10.3298906 ] } },
{ "type": "Feature", "properties": { "amenity": "fast_food", "name": "Jollibee" }, "geometry": { "type": "Point", "coordinates": [ 123.9069256, 10.3280233 ] } },
{ "type": "Feature", "properties": { "amenity": "fast_food", "name": "KFC" }, "geometry": { "type": "Point", "coordinates": [ 123.90688, 10.3279363 ] } },
{ "type": "Feature", "properties": { "amenity": "fast_food", "name": "McDonald's" }, "geometry": { "type": "Point", "coordinates": [ 123.9056324, 10.3282592 ] } },
{ "type": "Feature", "properties": { "amenity": "restaurant", "name": "Moon Cafe" }, "geometry": { "type": "Point", "coordinates": [ 123.9060478, 10.3284982 ] } },
{ "type": "Feature", "properties": { "amenity": "cafe", "name": "Starbucks" }, "geometry": { "type": "Point", "coordinates": [ 123.9066949, 10.3276354 ] } },
{ "type": "Feature", "properties": { "amenity": "school", "name": "CDLI" }, "geometry": { "type": "Point", "coordinates": [ 123.9002115, 10.3315726 ] } },
{ "type": "Feature", "properties": { "amenity": "townhall", "name": "Bo. Luz Brgy Hall" }, "geometry": { "type": "Point", "coordinates": [ 123.9062252, 10.3236872 ] } },
{ "type": "Feature", "properties": { "amenity": "restaurant", "name": "Atek's Ngoyong Train" }, "geometry": { "type": "Point", "coordinates": [ 123.9116573, 10.3250751 ] } },
{ "type": "Feature", "properties": { "amenity": "restaurant", "name": "Chibori" }, "geometry": { "type": "Point", "coordinates": [ 123.9084902, 10.3313183 ] } },
{ "type": "Feature", "properties": { "amenity": "restaurant", "name": "Crazy Crab" }, "geometry": { "type": "Point", "coordinates": [ 123.9108527, 10.3388578 ] } },
{ "type": "Feature", "properties": { "amenity": "atm", "name": null }, "geometry": { "type": "Point", "coordinates": [ 123.906445, 10.3272835 ] } },
{ "type": "Feature", "properties": { "amenity": "fast_food", "name": "McDonald's" }, "geometry": { "type": "Point", "coordinates": [ 123.906722, 10.332204 ] } },
{ "type": "Feature", "properties": { "amenity": "restaurant", "name": "Mamma Maria's Pizzeria" }, "geometry": { "type": "Point", "coordinates": [ 123.9076232, 10.3317194 ] } },
{ "type": "Feature", "properties": { "amenity": "restaurant", "name": "Shakey's" }, "geometry": { "type": "Point", "coordinates": [ 123.905735, 10.3285766 ] } },
{ "type": "Feature", "properties": { "amenity": "pharmacy", "name": "Rose Pharmacy" }, "geometry": { "type": "Point", "coordinates": [ 123.8976595, 10.3302466 ] } },
{ "type": "Feature", "properties": { "amenity": "fast_food", "name": "Flame it Burgers & Sausages" }, "geometry": { "type": "Point", "coordinates": [ 123.9082634, 10.3244674 ] } },
{ "type": "Feature", "properties": { "amenity": "fast_food", "name": "Angel's Hamburger" }, "geometry": { "type": "Point", "coordinates": [ 123.8980165, 10.3312708 ] } },
{ "type": "Feature", "properties": { "amenity": "pharmacy", "name": "Generika" }, "geometry": { "type": "Point", "coordinates": [ 123.8979394, 10.3311668 ] } },
{ "type": "Feature", "properties": { "amenity": "bank", "name": "PNB" }, "geometry": { "type": "Point", "coordinates": [ 123.9061467, 10.3275114 ] } },
{ "type": "Feature", "properties": { "amenity": "bank", "name": "UnionBank" }, "geometry": { "type": "Point", "coordinates": [ 123.9059858, 10.3276328 ] } },
{ "type": "Feature", "properties": { "amenity": "bank", "name": "BDO" }, "geometry": { "type": "Point", "coordinates": [ 123.9062272, 10.3277489 ] } },
{ "type": "Feature", "properties": { "amenity": "bank", "name": "Metrobank" }, "geometry": { "type": "Point", "coordinates": [ 123.9032429, 10.3283505 ] } },
{ "type": "Feature", "properties": { "amenity": "pharmacy", "name": "Mercury Drug" }, "geometry": { "type": "Point", "coordinates": [ 123.9057749, 10.3280972 ] } },
{ "type": "Feature", "properties": { "amenity": "school", "name": "PAREF Springdale School for Boys" }, "geometry": { "type": "Point", "coordinates": [ 123.8995989, 10.3256849 ] } },
{ "type": "Feature", "properties": { "amenity": "marketplace", "name": "Lahug Market" }, "geometry": { "type": "Point", "coordinates": [ 123.8989382, 10.3318902 ] } },
{ "type": "Feature", "properties": { "amenity": "restaurant", "name": "Cafe Capriccio" }, "geometry": { "type": "Point", "coordinates": [ 123.8963868, 10.3394611 ] } },
{ "type": "Feature", "properties": { "amenity": "atm", "name": "Metrobank" }, "geometry": { "type": "Point", "coordinates": [ 123.9056848, 10.3281948 ] } },
{ "type": "Feature", "properties": { "amenity": "restaurant", "name": "Casa Verde" }, "geometry": { "type": "Point", "coordinates": [ 123.9059665, 10.3282766 ] } },
{ "type": "Feature", "properties": { "amenity": "restaurant", "name": "Around The World Pizza" }, "geometry": { "type": "Point", "coordinates": [ 123.8982279, 10.3263314 ] } },
{ "type": "Feature", "properties": { "amenity": "restaurant", "name": "30 Kitchen + Bar" }, "geometry": { "type": "Point", "coordinates": [ 123.9089419, 10.3245324 ] } },
{ "type": "Feature", "properties": { "amenity": "bank", "name": "Metrobank" }, "geometry": { "type": "Point", "coordinates": [ 123.8979238, 10.3297044 ] } },
{ "type": "Feature", "properties": { "amenity": "cafe", "name": "Country Basket" }, "geometry": { "type": "Point", "coordinates": [ 123.897555, 10.3301143 ] } },
{ "type": "Feature", "properties": { "amenity": "pharmacy", "name": "Rose Pharmacy" }, "geometry": { "type": "Point", "coordinates": [ 123.8975214, 10.3300538 ] } },
{ "type": "Feature", "properties": { "amenity": "restaurant", "name": "Cadi Shack Diner" }, "geometry": { "type": "Point", "coordinates": [ 123.9135898, 10.3237519 ] } },
{ "type": "Feature", "properties": { "amenity": "restaurant", "name": "R's Food Avenue" }, "geometry": { "type": "Point", "coordinates": [ 123.9126779, 10.32381 ] } },
{ "type": "Feature", "properties": { "amenity": "nightclub", "name": "Icon Club Cebu" }, "geometry": { "type": "Point", "coordinates": [ 123.9129622, 10.3222426 ] } },
{ "type": "Feature", "properties": { "amenity": "fast_food", "name": "Krispy Kreme" }, "geometry": { "type": "Point", "coordinates": [ 123.9071491, 10.3284454 ] } },
{ "type": "Feature", "properties": { "amenity": "restaurant", "name": "Circa 1900" }, "geometry": { "type": "Point", "coordinates": [ 123.9001642, 10.3268752 ] } },
{ "type": "Feature", "properties": { "amenity": "dormitory", "name": "Boarding House" }, "geometry": { "type": "Point", "coordinates": [ 123.9039508, 10.3227048 ] } },
{ "type": "Feature", "properties": { "amenity": "parking", "name": "Grand Convention Parking Lot" }, "geometry": { "type": "Point", "coordinates": [ 123.9047063, 10.3224535 ] } },
{ "type": "Feature", "properties": { "amenity": "restaurant", "name": "Chowabungga" }, "geometry": { "type": "Point", "coordinates": [ 123.9073087, 10.3287809 ] } },
{ "type": "Feature", "properties": { "amenity": "restaurant", "name": "Ilaputi" }, "geometry": { "type": "Point", "coordinates": [ 123.9076648, 10.3289876 ] } },
{ "type": "Feature", "properties": { "amenity": "bank", "name": "China Bank Savings" }, "geometry": { "type": "Point", "coordinates": [ 123.9071233, 10.3292037 ] } },
{ "type": "Feature", "properties": { "amenity": "restaurant", "name": null }, "geometry": { "type": "Point", "coordinates": [ 123.9070922, 10.3291472 ] } },
{ "type": "Feature", "properties": { "amenity": "bar", "name": "Rescue" }, "geometry": { "type": "Point", "coordinates": [ 123.904596, 10.322017 ] } },
{ "type": "Feature", "properties": { "amenity": "bar", "name": "La Bonita Japanese Karaoke & Bar" }, "geometry": { "type": "Point", "coordinates": [ 123.904498, 10.3218852 ] } },
{ "type": "Feature", "properties": { "amenity": "cafe", "name": "Bubble Bee" }, "geometry": { "type": "Point", "coordinates": [ 123.9069138, 10.3292518 ] } },
{ "type": "Feature", "properties": { "amenity": "cafe", "name": "Beanleaf" }, "geometry": { "type": "Point", "coordinates": [ 123.9068857, 10.3292953 ] } },
{ "type": "Feature", "properties": { "amenity": "cafe", "name": "Tazza Cafe" }, "geometry": { "type": "Point", "coordinates": [ 123.8999474, 10.3314754 ] } },
{ "type": "Feature", "properties": { "amenity": "bar", "name": "Burrow" }, "geometry": { "type": "Point", "coordinates": [ 123.8995828, 10.3311208 ] } },
{ "type": "Feature", "properties": { "amenity": "cafe", "name": "Fujinova" }, "geometry": { "type": "Point", "coordinates": [ 123.8994487, 10.3313415 ] } },
{ "type": "Feature", "properties": { "amenity": "restaurant", "name": "Bellini" }, "geometry": { "type": "Point", "coordinates": [ 123.8968607, 10.3358661 ] } },
{ "type": "Feature", "properties": { "amenity": "restaurant", "name": "Anzani" }, "geometry": { "type": "Point", "coordinates": [ 123.8968355, 10.3355344 ] } },
{ "type": "Feature", "properties": { "amenity": "cafe", "name": "Abaceria Cafe & Deli" }, "geometry": { "type": "Point", "coordinates": [ 123.9125588, 10.326505 ] } },
{ "type": "Feature", "properties": { "amenity": "restaurant", "name": "Zubuchon" }, "geometry": { "type": "Point", "coordinates": [ 123.9059986, 10.32836 ] } },
{ "type": "Feature", "properties": { "amenity": "restaurant", "name": "Gusto" }, "geometry": { "type": "Point", "coordinates": [ 123.9055028, 10.3289972 ] } },
{ "type": "Feature", "properties": { "amenity": "restaurant", "name": "La Parisienne" }, "geometry": { "type": "Point", "coordinates": [ 123.898113, 10.3262886 ] } },
{ "type": "Feature", "properties": { "amenity": "place_of_worship", "name": "Banilad Alliance Fellowship" }, "geometry": { "type": "Point", "coordinates": [ 123.9132122, 10.3391537 ] } },
{ "type": "Feature", "properties": { "amenity": "pharmacy", "name": "KLY Pharmacy" }, "geometry": { "type": "Point", "coordinates": [ 123.8980653, 10.3312438 ] } },
{ "type": "Feature", "properties": { "amenity": "fast_food", "name": "Chooks To Go" }, "geometry": { "type": "Point", "coordinates": [ 123.8973291, 10.3283875 ] } },
{ "type": "Feature", "properties": { "amenity": "atm", "name": "BPI" }, "geometry": { "type": "Point", "coordinates": [ 123.9055838, 10.3305343 ] } },
{ "type": "Feature", "properties": { "amenity": "fast_food", "name": "KFC" }, "geometry": { "type": "Point", "coordinates": [ 123.9054744, 10.3305647 ] } },
{ "type": "Feature", "properties": { "amenity": "cafe", "name": "Alejandra's Place" }, "geometry": { "type": "Point", "coordinates": [ 123.9118332, 10.3265182 ] } },
{ "type": "Feature", "properties": { "amenity": "library", "name": "Sugbu Study Center" }, "geometry": { "type": "Point", "coordinates": [ 123.9104375, 10.3216383 ] } },
{ "type": "Feature", "properties": { "amenity": "restaurant", "name": "chikaan" }, "geometry": { "type": "Point", "coordinates": [ 123.9025889, 10.3291423 ] } },
{ "type": "Feature", "properties": { "amenity": "restaurant", "name": "Manggahan" }, "geometry": { "type": "Point", "coordinates": [ 123.9010024, 10.3333554 ] } },
{ "type": "Feature", "properties": { "amenity": "hospital", "name": "Camp Lapu-Lapu Army Station Hospital" }, "geometry": { "type": "Point", "coordinates": [ 123.9033159, 10.3374922 ] } },
{ "type": "Feature", "properties": { "amenity": "fast_food", "name": "Yellow Cab" }, "geometry": { "type": "Point", "coordinates": [ 123.905764, 10.3304503 ] } },
{ "type": "Feature", "properties": { "amenity": "cafe", "name": "Starbucks" }, "geometry": { "type": "Point", "coordinates": [ 123.9058036, 10.3305216 ] } },
{ "type": "Feature", "properties": { "amenity": "restaurant", "name": "Han Guk Kwan Korean Restaurant" }, "geometry": { "type": "Point", "coordinates": [ 123.9040813, 10.3215768 ] } },
{ "type": "Feature", "properties": { "amenity": "restaurant", "name": "Hwang Kung restaurent" }, "geometry": { "type": "Point", "coordinates": [ 123.903796, 10.3273963 ] } },
{ "type": "Feature", "properties": { "amenity": "cafe", "name": "Tablea Chocolate Café" }, "geometry": { "type": "Point", "coordinates": [ 123.8984779, 10.330622 ] } },
{ "type": "Feature", "properties": { "amenity": "dive_centre", "name": "SK Divers Center" }, "geometry": { "type": "Point", "coordinates": [ 123.9033421, 10.3251594 ] } },
{ "type": "Feature", "properties": { "amenity": "restaurant", "name": "Ramen Dojo" }, "geometry": { "type": "Point", "coordinates": [ 123.9056494, 10.3284733 ] } },
{ "type": "Feature", "properties": { "amenity": "school", "name": "Lahug Christian School, Inc." }, "geometry": { "type": "Point", "coordinates": [ 123.8978974, 10.3260706 ] } },
{ "type": "Feature", "properties": { "amenity": "place_of_worship", "name": "Lahug Evangelical Free Church" }, "geometry": { "type": "Point", "coordinates": [ 123.8978943, 10.3260922 ] } },
{ "type": "Feature", "properties": { "amenity": "school", "name": "North American Language Academy" }, "geometry": { "type": "Point", "coordinates": [ 123.9004865, 10.330174 ] } },
{ "type": "Feature", "properties": { "amenity": "school", "name": "EV English Academy" }, "geometry": { "type": "Point", "coordinates": [ 123.9104971, 10.3261421 ] } },
{ "type": "Feature", "properties": { "amenity": "school", "name": "Yukun Chinese School" }, "geometry": { "type": "Point", "coordinates": [ 123.9025869, 10.3309107 ] } },
{ "type": "Feature", "properties": { "amenity": "restaurant", "name": "The Park Social" }, "geometry": { "type": "Point", "coordinates": [ 123.9060736, 10.3310256 ] } },
{ "type": "Feature", "properties": { "amenity": "parking_entrance", "name": null }, "geometry": { "type": "Point", "coordinates": [ 123.9051286, 10.3308822 ] } },
{ "type": "Feature", "properties": { "amenity": "pub", "name": "Turning Wheels Craft Brewery" }, "geometry": { "type": "Point", "coordinates": [ 123.9093353, 10.327454 ] } },
{ "type": "Feature", "properties": { "amenity": "restaurant", "name": "Ikkousha Ramen" }, "geometry": { "type": "Point", "coordinates": [ 123.8986919, 10.3304682 ] } },
{ "type": "Feature", "properties": { "amenity": "restaurant", "name": "Ding Qua Qua Dimsum House" }, "geometry": { "type": "Point", "coordinates": [ 123.8984237, 10.3305843 ] } },
{ "type": "Feature", "properties": { "amenity": "clinic", "name": "Barangay Luz Health Center" }, "geometry": { "type": "Point", "coordinates": [ 123.9062045, 10.3236716 ] } },
{ "type": "Feature", "properties": { "amenity": "shelter", "name": null }, "geometry": { "type": "Point", "coordinates": [ 123.9026839, 10.3304257 ] } },
{ "type": "Feature", "properties": { "amenity": "atm", "name": null }, "geometry": { "type": "Point", "coordinates": [ 123.9038365, 10.328323 ] } },
{ "type": "Feature", "properties": { "amenity": "place_of_worship", "name": "Living the Gospel Renewal Community" }, "geometry": { "type": "Point", "coordinates": [ 123.9061588, 10.3255723 ] } },
{ "type": "Feature", "properties": { "amenity": "bicycle_rental", "name": null }, "geometry": { "type": "Point", "coordinates": [ 123.8970806, 10.330781 ] } },
{ "type": "Feature", "properties": { "amenity": "restaurant", "name": "Patio Isabel" }, "geometry": { "type": "Point", "coordinates": [ 123.9119256, 10.3364886 ] } },
{ "type": "Feature", "properties": { "amenity": "bureau_de_change", "name": null }, "geometry": { "type": "Point", "coordinates": [ 123.8983931, 10.3307321 ] } },
{ "type": "Feature", "properties": { "amenity": "bar", "name": "Alice Garden Hookah / Shisha" }, "geometry": { "type": "Point", "coordinates": [ 123.9014762, 10.3338581 ] } },
{ "type": "Feature", "properties": { "amenity": "bar", "name": "Cebu Brewing Co. Taproom" }, "geometry": { "type": "Point", "coordinates": [ 123.9094375, 10.3282465 ] } },
{ "type": "Feature", "properties": { "amenity": "restaurant", "name": "Maya" }, "geometry": { "type": "Point", "coordinates": [ 123.9101014, 10.3279575 ] } },
{ "type": "Feature", "properties": { "amenity": "restaurant", "name": "Casa Dos" }, "geometry": { "type": "Point", "coordinates": [ 123.9002483, 10.3271596 ] } },
{ "type": "Feature", "properties": { "amenity": "restaurant", "name": "Isla Sugbu Seafood City" }, "geometry": { "type": "Point", "coordinates": [ 123.9050869, 10.3224119 ] } },
{ "type": "Feature", "properties": { "amenity": "bench", "name": null }, "geometry": { "type": "Point", "coordinates": [ 123.9070591, 10.322655 ] } },
{ "type": "Feature", "properties": { "amenity": "restaurant", "name": "Albur's All In Pizza Burger Grill" }, "geometry": { "type": "Point", "coordinates": [ 123.9115747, 10.3255444 ] } },
{ "type": "Feature", "properties": { "amenity": "restaurant", "name": "Hendy's Diner" }, "geometry": { "type": "Point", "coordinates": [ 123.9109828, 10.3333039 ] } },
{ "type": "Feature", "properties": { "amenity": "restaurant", "name": "Son-Goha Onigirazu Donburi" }, "geometry": { "type": "Point", "coordinates": [ 123.9110597, 10.3333468 ] } },
{ "type": "Feature", "properties": { "amenity": "fast_food", "name": "Angel's Burger" }, "geometry": { "type": "Point", "coordinates": [ 123.8973423, 10.328667 ] } },
{ "type": "Feature", "properties": { "amenity": "fast_food", "name": "Ngohiong Express" }, "geometry": { "type": "Point", "coordinates": [ 123.8973423, 10.3287673 ] } },
{ "type": "Feature", "properties": { "amenity": "motorcycle_parking", "name": null }, "geometry": { "type": "Point", "coordinates": [ 123.9052931, 10.3281559 ] } },
{ "type": "Feature", "properties": { "amenity": "restaurant", "name": "Abaca Baking Company" }, "geometry": { "type": "Point", "coordinates": [ 123.9056881, 10.3301993 ] } },
{ "type": "Feature", "properties": { "amenity": "fast_food", "name": "Jollibee" }, "geometry": { "type": "Point", "coordinates": [ 123.9055609, 10.3299781 ] } },
{ "type": "Feature", "properties": { "amenity": "fast_food", "name": "Dimsum Break" }, "geometry": { "type": "Point", "coordinates": [ 123.9054655, 10.3298307 ] } },
{ "type": "Feature", "properties": { "amenity": "cafe", "name": "The Civet Coffee" }, "geometry": { "type": "Point", "coordinates": [ 123.906201, 10.3302963 ] } },
{ "type": "Feature", "properties": { "amenity": "parking", "name": null }, "geometry": { "type": "Point", "coordinates": [ 123.9009415, 10.3314511 ] } },
{ "type": "Feature", "properties": { "amenity": "school", "name": "Kid's World Child Development Centre" }, "geometry": { "type": "Point", "coordinates": [ 123.9004214, 10.3303607 ] } },
{ "type": "Feature", "properties": { "amenity": "cafe", "name": "Gold Bean Coffee" }, "geometry": { "type": "Point", "coordinates": [ 123.9008541, 10.3298765 ] } },
{ "type": "Feature", "properties": { "amenity": "restaurant", "name": "MIO" }, "geometry": { "type": "Point", "coordinates": [ 123.9071564, 10.3250114 ] } },
{ "type": "Feature", "properties": { "amenity": "cafe", "name": "32 Umber" }, "geometry": { "type": "Point", "coordinates": [ 123.9045298, 10.3219594 ] } },
{ "type": "Feature", "properties": { "amenity": "cafe", "name": "Cafe Don Don" }, "geometry": { "type": "Point", "coordinates": [ 123.903684, 10.3284983 ] } },
{ "type": "Feature", "properties": { "amenity": "restaurant", "name": "Brique" }, "geometry": { "type": "Point", "coordinates": [ 123.9024056, 10.3291866 ] } },
{ "type": "Feature", "properties": { "amenity": "cafe", "name": "Krave Cafe" }, "geometry": { "type": "Point", "coordinates": [ 123.9018629, 10.3294248 ] } },
{ "type": "Feature", "properties": { "amenity": "restaurant", "name": "AA BBQ" }, "geometry": { "type": "Point", "coordinates": [ 123.90121, 10.3297257 ] } },
{ "type": "Feature", "properties": { "amenity": "restaurant", "name": "JCA Pizza" }, "geometry": { "type": "Point", "coordinates": [ 123.9005938, 10.3301023 ] } },
{ "type": "Feature", "properties": { "amenity": "bar", "name": "G-Spot" }, "geometry": { "type": "Point", "coordinates": [ 123.9006547, 10.3300652 ] } },
{ "type": "Feature", "properties": { "amenity": "restaurant", "name": "Han Guk Kwan" }, "geometry": { "type": "Point", "coordinates": [ 123.9006904, 10.3297031 ] } },
{ "type": "Feature", "properties": { "amenity": "fast_food", "name": "Chukumi Spicy" }, "geometry": { "type": "Point", "coordinates": [ 123.9010654, 10.3297817 ] } },
{ "type": "Feature", "properties": { "amenity": "restaurant", "name": "The Weekend" }, "geometry": { "type": "Point", "coordinates": [ 123.9086082, 10.3250152 ] } },
{ "type": "Feature", "properties": { "amenity": "restaurant", "name": "Pen Cafe & Bistro" }, "geometry": { "type": "Point", "coordinates": [ 123.9085211, 10.3251265 ] } },
{ "type": "Feature", "properties": { "amenity": "cafe", "name": "Tom N Toms" }, "geometry": { "type": "Point", "coordinates": [ 123.9084688, 10.3249514 ] } },
{ "type": "Feature", "properties": { "amenity": "bar", "name": "Pipeline" }, "geometry": { "type": "Point", "coordinates": [ 123.9051377, 10.331886 ] } },
{ "type": "Feature", "properties": { "amenity": "bar", "name": "Basic" }, "geometry": { "type": "Point", "coordinates": [ 123.9097558, 10.3298438 ] } },
{ "type": "Feature", "properties": { "amenity": "college", "name": "Pope John XIII Seminary" }, "geometry": { "type": "Point", "coordinates": [ 123.9093178, 10.3220441 ] } },
{ "type": "Feature", "properties": { "amenity": "cafe", "name": "Mangosix Cafe & Desserts" }, "geometry": { "type": "Point", "coordinates": [ 123.902939, 10.328839 ] } },
{ "type": "Feature", "properties": { "amenity": "parking", "name": null }, "geometry": { "type": "Point", "coordinates": [ 123.9057116, 10.3258743 ] } },
{ "type": "Feature", "properties": { "amenity": "parking", "name": null }, "geometry": { "type": "Point", "coordinates": [ 123.9076053, 10.3350109 ] } },
{ "type": "Feature", "properties": { "amenity": "cafe", "name": "The Daily Grind Cafe" }, "geometry": { "type": "Point", "coordinates": [ 123.9120724, 10.32435 ] } },
{ "type": "Feature", "properties": { "amenity": "restaurant", "name": "Bharat Spice" }, "geometry": { "type": "Point", "coordinates": [ 123.9084312, 10.331419 ] } },
{ "type": "Feature", "properties": { "amenity": "college", "name": "STI College" }, "geometry": { "type": "Point", "coordinates": [ 123.9020361, 10.3295536 ] } },
{ "type": "Feature", "properties": { "amenity": "school", "name": "STI Senior High" }, "geometry": { "type": "Point", "coordinates": [ 123.9021452, 10.329536 ] } },
{ "type": "Feature", "properties": { "amenity": "pharmacy", "name": "La Nueva Pharmacy" }, "geometry": { "type": "Point", "coordinates": [ 123.9061406, 10.324225 ] } },
{ "type": "Feature", "properties": { "amenity": "restaurant", "name": "Dolce Coffee" }, "geometry": { "type": "Point", "coordinates": [ 123.896944, 10.3363826 ] } },
{ "type": "Feature", "properties": { "amenity": "cafe", "name": "Abaca Baking Company" }, "geometry": { "type": "Point", "coordinates": [ 123.9098613, 10.3280689 ] } },
{ "type": "Feature", "properties": { "amenity": "atm", "name": "BPI" }, "geometry": { "type": "Point", "coordinates": [ 123.9073698, 10.3288815 ] } },
{ "type": "Feature", "properties": { "amenity": "atm", "name": "BPI" }, "geometry": { "type": "Point", "coordinates": [ 123.9092879, 10.3323517 ] } },
{ "type": "Feature", "properties": { "amenity": "atm", "name": "BPI" }, "geometry": { "type": "Point", "coordinates": [ 123.9071004, 10.3319592 ] } },
{ "type": "Feature", "properties": { "amenity": "cafe", "name": "Music One KTV" }, "geometry": { "type": "Point", "coordinates": [ 123.9060444, 10.328584 ] } },
{ "type": "Feature", "properties": { "amenity": "cinema", "name": "Ayala Malls Central Bloc Cinema" }, "geometry": { "type": "Point", "coordinates": [ 123.9074406, 10.3311688 ] } },
{ "type": "Feature", "properties": { "amenity": "cafe", "name": "The Coffee Bean & Tea Leaf" }, "geometry": { "type": "Point", "coordinates": [ 123.9090832, 10.3317906 ] } },
{ "type": "Feature", "properties": { "amenity": "pharmacy", "name": "Watsons" }, "geometry": { "type": "Point", "coordinates": [ 123.9069217, 10.3305176 ] } },
{ "type": "Feature", "properties": { "amenity": "community_centre", "name": null }, "geometry": { "type": "Point", "coordinates": [ 123.8982519, 10.3264743 ] } },
{ "type": "Feature", "properties": { "amenity": "cafe", "name": "Coffee Bay" }, "geometry": { "type": "Point", "coordinates": [ 123.9058116, 10.3292071 ] } },
{ "type": "Feature", "properties": { "amenity": "place_of_worship", "name": "Cebu Christian Gospel Center" }, "geometry": { "type": "Point", "coordinates": [ 123.9051354, 10.3230906 ] } },
{ "type": "Feature", "properties": { "amenity": "school", "name": "Barrio Luz National High School" }, "geometry": { "type": "Point", "coordinates": [ 123.9067644, 10.3243557 ] } },
{ "type": "Feature", "properties": { "amenity": "restaurant", "name": "Gate 5 Pochero House" }, "geometry": { "type": "Point", "coordinates": [ 123.9034618, 10.3299725 ] } },
{ "type": "Feature", "properties": { "amenity": "fast_food", "name": "Ekit Food House" }, "geometry": { "type": "Point", "coordinates": [ 123.9137452, 10.3245156 ] } },
{ "type": "Feature", "properties": { "amenity": "restaurant", "name": "Noy's Yellow Chicken" }, "geometry": { "type": "Point", "coordinates": [ 123.9135605, 10.3223528 ] } },
{ "type": "Feature", "properties": { "amenity": "parking_entrance", "name": null }, "geometry": { "type": "Point", "coordinates": [ 123.9085732, 10.3337826 ] } },
{ "type": "Feature", "properties": { "amenity": "parking_entrance", "name": null }, "geometry": { "type": "Point", "coordinates": [ 123.909157, 10.3279089 ] } },
{ "type": "Feature", "properties": { "amenity": "police", "name": null }, "geometry": { "type": "Point", "coordinates": [ 123.9084971, 10.3308715 ] } },
{ "type": "Feature", "properties": { "amenity": "bicycle_parking", "name": null }, "geometry": { "type": "Point", "coordinates": [ 123.9085186, 10.3308741 ] } },
{ "type": "Feature", "properties": { "amenity": "bicycle_parking", "name": null }, "geometry": { "type": "Point", "coordinates": [ 123.9077018, 10.3294894 ] } },
{ "type": "Feature", "properties": { "amenity": "pharmacy", "name": "Rose Pharmacy" }, "geometry": { "type": "Point", "coordinates": [ 123.90646, 10.3274008 ] } },
{ "type": "Feature", "properties": { "amenity": "police", "name": null }, "geometry": { "type": "Point", "coordinates": [ 123.9061569, 10.3272904 ] } },
{ "type": "Feature", "properties": { "amenity": "bicycle_parking", "name": null }, "geometry": { "type": "Point", "coordinates": [ 123.9062212, 10.3288165 ] } },
{ "type": "Feature", "properties": { "amenity": "restaurant", "name": "Mad Gorilla" }, "geometry": { "type": "Point", "coordinates": [ 123.9037737, 10.3281916 ] } },
{ "type": "Feature", "properties": { "amenity": "bus_station", "name": "Cebu IT Park Transport Terminal" }, "geometry": { "type": "Point", "coordinates": [ 123.9065626, 10.3317386 ] } },
{ "type": "Feature", "properties": { "amenity": "restaurant", "name": "Garden of Envy" }, "geometry": { "type": "Point", "coordinates": [ 123.9093764, 10.3243283 ] } },
{ "type": "Feature", "properties": { "amenity": "restaurant", "name": "Pakû" }, "geometry": { "type": "Point", "coordinates": [ 123.9091649, 10.3241184 ] } },
{ "type": "Feature", "properties": { "amenity": "fast_food", "name": "Nena Willer's Lechon" }, "geometry": { "type": "Point", "coordinates": [ 123.8975293, 10.3297823 ] } },
{ "type": "Feature", "properties": { "amenity": "parking_entrance", "name": null }, "geometry": { "type": "Point", "coordinates": [ 123.9090463, 10.3329277 ] } },
{ "type": "Feature", "properties": { "amenity": "parking_entrance", "name": "Casino Clients Parking Access" }, "geometry": { "type": "Point", "coordinates": [ 123.9045355, 10.3243043 ] } },
{ "type": "Feature", "properties": { "amenity": "bench", "name": null }, "geometry": { "type": "Point", "coordinates": [ 123.9054399, 10.3319496 ] } },
{ "type": "Feature", "properties": { "amenity": "bench", "name": null }, "geometry": { "type": "Point", "coordinates": [ 123.9056859, 10.3318441 ] } },
{ "type": "Feature", "properties": { "amenity": "waste_disposal", "name": null }, "geometry": { "type": "Point", "coordinates": [ 123.9053583, 10.3319978 ] } },
{ "type": "Feature", "properties": { "amenity": "bench", "name": null }, "geometry": { "type": "Point", "coordinates": [ 123.905881, 10.3321179 ] } },
{ "type": "Feature", "properties": { "amenity": "bench", "name": null }, "geometry": { "type": "Point", "coordinates": [ 123.9055592, 10.331905 ] } },
{ "type": "Feature", "properties": { "amenity": "love_hotel", "name": "Queensland Hotel - Lahug Branch" }, "geometry": { "type": "Point", "coordinates": [ 123.8975541, 10.3308808 ] } },
{ "type": "Feature", "properties": { "amenity": "bbq", "name": null }, "geometry": { "type": "Point", "coordinates": [ 123.910732, 10.3346082 ] } },
{ "type": "Feature", "properties": { "amenity": "cafe", "name": "Itealicious milk tea" }, "geometry": { "type": "Point", "coordinates": [ 123.9069684, 10.3334635 ] } },
{ "type": "Feature", "properties": { "amenity": "shelf", "name": "Yankee Candle" }, "geometry": { "type": "Point", "coordinates": [ 123.907553, 10.330879 ] } },
{ "type": "Feature", "properties": { "amenity": "fast_food", "name": "Pastabilities and More" }, "geometry": { "type": "Point", "coordinates": [ 123.9057141, 10.3274005 ] } },
{ "type": "Feature", "properties": { "amenity": "fast_food", "name": "The Belly Buster" }, "geometry": { "type": "Point", "coordinates": [ 123.9054712, 10.3275417 ] } },
{ "type": "Feature", "properties": { "amenity": "fast_food", "name": "Migoy's Grill" }, "geometry": { "type": "Point", "coordinates": [ 123.9058823, 10.3273026 ] } },
{ "type": "Feature", "properties": { "amenity": "fast_food", "name": "Lax Mart" }, "geometry": { "type": "Point", "coordinates": [ 123.9057761, 10.3273644 ] } },
{ "type": "Feature", "properties": { "amenity": "fast_food", "name": "Coffee First" }, "geometry": { "type": "Point", "coordinates": [ 123.9055907, 10.3274722 ] } },
{ "type": "Feature", "properties": { "amenity": "fast_food", "name": "Ohhh Snack" }, "geometry": { "type": "Point", "coordinates": [ 123.9054186, 10.3275723 ] } },
{ "type": "Feature", "properties": { "amenity": "fast_food", "name": "Kegg" }, "geometry": { "type": "Point", "coordinates": [ 123.9058323, 10.3273317 ] } },
{ "type": "Feature", "properties": { "amenity": "fast_food", "name": "Mojo Juice Bar" }, "geometry": { "type": "Point", "coordinates": [ 123.9055308, 10.3275071 ] } },
{ "type": "Feature", "properties": { "amenity": "internet_cafe", "name": "GC iCafe" }, "geometry": { "type": "Point", "coordinates": [ 123.9117709, 10.3394787 ] } },
{ "type": "Feature", "properties": { "amenity": "cafe", "name": "Beanleaf" }, "geometry": { "type": "Point", "coordinates": [ 123.9065624, 10.3324008 ] } },
{ "type": "Feature", "properties": { "amenity": "restaurant", "name": "New York Buffalo Brad's Hot Wings" }, "geometry": { "type": "Point", "coordinates": [ 123.9057772, 10.331052 ] } },
{ "type": "Feature", "properties": { "amenity": "bank", "name": "Metro" }, "geometry": { "type": "Point", "coordinates": [ 123.9065473, 10.330716 ] } },
{ "type": "Feature", "properties": { "amenity": "restaurant", "name": "Mendokoro" }, "geometry": { "type": "Point", "coordinates": [ 123.9066445, 10.3298138 ] } },
{ "type": "Feature", "properties": { "amenity": "dentist", "name": "msDental clinic" }, "geometry": { "type": "Point", "coordinates": [ 123.9056316, 10.3234018 ] } },
{ "type": "Feature", "properties": { "amenity": "shelter", "name": null }, "geometry": { "type": "Point", "coordinates": [ 123.9101976, 10.3315226 ] } },
{ "type": "Feature", "properties": { "amenity": "shelter", "name": null }, "geometry": { "type": "Point", "coordinates": [ 123.9101198, 10.3317963 ] } },
{ "type": "Feature", "properties": { "amenity": "shelter", "name": null }, "geometry": { "type": "Point", "coordinates": [ 123.9098503, 10.3310139 ] } },
{ "type": "Feature", "properties": { "amenity": "fast_food", "name": "Mashita Manok Ug Liempo" }, "geometry": { "type": "Point", "coordinates": [ 123.9050679, 10.3221086 ] } },
{ "type": "Feature", "properties": { "amenity": "pharmacy", "name": "Gia Pharmacy" }, "geometry": { "type": "Point", "coordinates": [ 123.906144, 10.3219204 ] } },
{ "type": "Feature", "properties": { "amenity": "marketplace", "name": "Public Market Barangay Luz" }, "geometry": { "type": "Point", "coordinates": [ 123.9060321, 10.321997 ] } },
{ "type": "Feature", "properties": { "amenity": "pharmacy", "name": "Generika" }, "geometry": { "type": "Point", "coordinates": [ 123.9054853, 10.3222859 ] } },
{ "type": "Feature", "properties": { "amenity": "fast_food", "name": "Burgerandee" }, "geometry": { "type": "Point", "coordinates": [ 123.9051014, 10.3221606 ] } },
{ "type": "Feature", "properties": { "amenity": "fast_food", "name": "Manukang Batan Express" }, "geometry": { "type": "Point", "coordinates": [ 123.9054729, 10.3227672 ] } },
{ "type": "Feature", "properties": { "amenity": "veterinary", "name": "Animal Wellness Vetinerary Hospital" }, "geometry": { "type": "Point", "coordinates": [ 123.9103995, 10.3334218 ] } },
{ "type": "Feature", "properties": { "amenity": "fast_food", "name": "Chicky'oink" }, "geometry": { "type": "Point", "coordinates": [ 123.9107582, 10.3352134 ] } },
{ "type": "Feature", "properties": { "amenity": "pub", "name": "His and Her Bar Salon" }, "geometry": { "type": "Point", "coordinates": [ 123.9110284, 10.3352517 ] } },
{ "type": "Feature", "properties": { "amenity": "veterinary", "name": "Akkadia" }, "geometry": { "type": "Point", "coordinates": [ 123.9113268, 10.3365057 ] } },
{ "type": "Feature", "properties": { "amenity": "fast_food", "name": "Greenwich" }, "geometry": { "type": "Point", "coordinates": [ 123.9116883, 10.3386939 ] } },
{ "type": "Feature", "properties": { "amenity": "restaurant", "name": null }, "geometry": { "type": "Point", "coordinates": [ 123.9105222, 10.3338512 ] } },
{ "type": "Feature", "properties": { "amenity": "cafe", "name": "Coffee @ 39" }, "geometry": { "type": "Point", "coordinates": [ 123.9105714, 10.3340923 ] } },
{ "type": "Feature", "properties": { "amenity": "restaurant", "name": "Biryani Express" }, "geometry": { "type": "Point", "coordinates": [ 123.9106858, 10.3353952 ] } },
{ "type": "Feature", "properties": { "amenity": "bank", "name": "Bank Ways" }, "geometry": { "type": "Point", "coordinates": [ 123.9110646, 10.3373237 ] } },
{ "type": "Feature", "properties": { "amenity": "cafe", "name": "Hatte Cafe" }, "geometry": { "type": "Point", "coordinates": [ 123.9111277, 10.3375256 ] } },
{ "type": "Feature", "properties": { "amenity": "fast_food", "name": "Angela's Burger" }, "geometry": { "type": "Point", "coordinates": [ 123.9112504, 10.3379267 ] } },
{ "type": "Feature", "properties": { "amenity": "fast_food", "name": "Yehudi Eatery" }, "geometry": { "type": "Point", "coordinates": [ 123.9112544, 10.3379742 ] } },
{ "type": "Feature", "properties": { "amenity": "fast_food", "name": "Carmelita's Fried Chicken" }, "geometry": { "type": "Point", "coordinates": [ 123.9112571, 10.3379979 ] } },
{ "type": "Feature", "properties": { "amenity": "restaurant", "name": "J&M Minimart and Eatery" }, "geometry": { "type": "Point", "coordinates": [ 123.9112759, 10.3380678 ] } },
{ "type": "Feature", "properties": { "amenity": "restaurant", "name": "CY Delicious Lechon Manok" }, "geometry": { "type": "Point", "coordinates": [ 123.9112853, 10.3381074 ] } },
{ "type": "Feature", "properties": { "amenity": "fast_food", "name": "Sitio Baca Active Womens Organisation Catering and Eatery" }, "geometry": { "type": "Point", "coordinates": [ 123.9113148, 10.3382591 ] } },
{ "type": "Feature", "properties": { "amenity": "cafe", "name": "Cup-Fei Iced Coffee" }, "geometry": { "type": "Point", "coordinates": [ 123.9113211, 10.3382789 ] } },
{ "type": "Feature", "properties": { "amenity": "restaurant", "name": "Katzpapa" }, "geometry": { "type": "Point", "coordinates": [ 123.9112276, 10.3386074 ] } },
{ "type": "Feature", "properties": { "amenity": "cafe", "name": "Ctrl + tea" }, "geometry": { "type": "Point", "coordinates": [ 123.9131252, 10.3238389 ] } },
{ "type": "Feature", "properties": { "amenity": "language_school", "name": "QQEnglish" }, "geometry": { "type": "Point", "coordinates": [ 123.9061627, 10.3301844 ] } },
{ "type": "Feature", "properties": { "amenity": "pharmacy", "name": "Rose Pharmacy" }, "geometry": { "type": "Point", "coordinates": [ 123.9034111, 10.3286762 ] } },
{ "type": "Feature", "properties": { "amenity": "cafe", "name": "Myths Coffee" }, "geometry": { "type": "Point", "coordinates": [ 123.8981844, 10.3224381 ] } },
{ "type": "Feature", "properties": { "amenity": "restaurant", "name": "The Weekend" }, "geometry": { "type": "Point", "coordinates": [ 123.9096169, 10.3277083 ] } },
{ "type": "Feature", "properties": { "amenity": "restaurant", "name": "Bell and Amadeus" }, "geometry": { "type": "Point", "coordinates": [ 123.9097239, 10.3276572 ] } },
{ "type": "Feature", "properties": { "amenity": "restaurant", "name": "Minante Pizzeria" }, "geometry": { "type": "Point", "coordinates": [ 123.9097945, 10.3276192 ] } },
{ "type": "Feature", "properties": { "amenity": "bar", "name": "Silk Road Bar and Lounge" }, "geometry": { "type": "Point", "coordinates": [ 123.9093419, 10.3279535 ] } },
{ "type": "Feature", "properties": { "amenity": "bar", "name": "Atmosphere" }, "geometry": { "type": "Point", "coordinates": [ 123.9045291, 10.3276605 ] } },
{ "type": "Feature", "properties": { "amenity": "police", "name": "Police outpost" }, "geometry": { "type": "Point", "coordinates": [ 123.8981345, 10.3309735 ] } },
{ "type": "Feature", "properties": { "amenity": "fast_food", "name": "Dunkin'" }, "geometry": { "type": "Point", "coordinates": [ 123.8985165, 10.3306398 ] } },
{ "type": "Feature", "properties": { "amenity": "fast_food", "name": "Mr. Sizzlers" }, "geometry": { "type": "Point", "coordinates": [ 123.8975446, 10.3299916 ] } },
{ "type": "Feature", "properties": { "amenity": "bank", "name": "Asia United Bank" }, "geometry": { "type": "Point", "coordinates": [ 123.8979506, 10.3297612 ] } },
{ "type": "Feature", "properties": { "amenity": "language_school", "name": "3D Academy" }, "geometry": { "type": "Point", "coordinates": [ 123.8979909, 10.3302643 ] } },
{ "type": "Feature", "properties": { "amenity": "cafe", "name": "Pickup Coffee" }, "geometry": { "type": "Point", "coordinates": [ 123.8979589, 10.3305096 ] } },
{ "type": "Feature", "properties": { "amenity": "bar", "name": "The Beat Bar" }, "geometry": { "type": "Point", "coordinates": [ 123.9092501, 10.3290023 ] } },
{ "type": "Feature", "properties": { "amenity": "restaurant", "name": "Sunburst Fried Chicken" }, "geometry": { "type": "Point", "coordinates": [ 123.9067699, 10.3307371 ] } },
{ "type": "Feature", "properties": { "amenity": "restaurant", "name": "Jonie's Sizzlers & Roast" }, "geometry": { "type": "Point", "coordinates": [ 123.9058497, 10.3286688 ] } },
{ "type": "Feature", "properties": { "amenity": "cafe", "name": "Coffee Bear" }, "geometry": { "type": "Point", "coordinates": [ 123.9066382, 10.3294501 ] } },
{ "type": "Feature", "properties": { "amenity": "fast_food", "name": "J. Co" }, "geometry": { "type": "Point", "coordinates": [ 123.9057081, 10.3288016 ] } },
{ "type": "Feature", "properties": { "amenity": "restaurant", "name": "Phat Pho" }, "geometry": { "type": "Point", "coordinates": [ 123.9070379, 10.3302768 ] } },
{ "type": "Feature", "properties": { "amenity": "restaurant", "name": "Yukga" }, "geometry": { "type": "Point", "coordinates": [ 123.9067285, 10.3297742 ] } },
{ "type": "Feature", "properties": { "amenity": "cafe", "name": "A Little Tea" }, "geometry": { "type": "Point", "coordinates": [ 123.9066705, 10.3296878 ] } },
{ "type": "Feature", "properties": { "amenity": "cafe", "name": "Starbucks" }, "geometry": { "type": "Point", "coordinates": [ 123.9072523, 10.3302187 ] } },
{ "type": "Feature", "properties": { "amenity": "fast_food", "name": "Buffalo Brad's Hot Wings" }, "geometry": { "type": "Point", "coordinates": [ 123.9058629, 10.3312067 ] } },
{ "type": "Feature", "properties": { "amenity": "atm", "name": null }, "geometry": { "type": "Point", "coordinates": [ 123.9119733, 10.3244204 ] } },
{ "type": "Feature", "properties": { "amenity": "car_wash", "name": null }, "geometry": { "type": "Point", "coordinates": [ 123.9128562, 10.323683 ] } },
{ "type": "Feature", "properties": { "amenity": "parking", "name": null }, "geometry": { "type": "Point", "coordinates": [ 123.9044657, 10.3239348 ] } },
{ "type": "Feature", "properties": { "amenity": "parking_entrance", "name": "General Parking Access" }, "geometry": { "type": "Point", "coordinates": [ 123.9046873, 10.3242306 ] } },
{ "type": "Feature", "properties": { "amenity": "cafe", "name": "Cafe Brindle" }, "geometry": { "type": "Point", "coordinates": [ 123.8964221, 10.3316169 ] } },
{ "type": "Feature", "properties": { "amenity": "atm", "name": null }, "geometry": { "type": "Point", "coordinates": [ 123.9071148, 10.3333202 ] } },
{ "type": "Feature", "properties": { "amenity": "fast_food", "name": "Talaga Chicken Butterfly" }, "geometry": { "type": "Point", "coordinates": [ 123.9074309, 10.3289821 ] } },
{ "type": "Feature", "properties": { "amenity": "dentist", "name": "Smile Specialist Dental Care" }, "geometry": { "type": "Point", "coordinates": [ 123.9073392, 10.3288312 ] } },
{ "type": "Feature", "properties": { "amenity": "fast_food", "name": "Brutus Star" }, "geometry": { "type": "Point", "coordinates": [ 123.9067645, 10.3277688 ] } },
{ "type": "Feature", "properties": { "amenity": "bank", "name": "East West Unibank" }, "geometry": { "type": "Point", "coordinates": [ 123.9054367, 10.3289419 ] } },
{ "type": "Feature", "properties": { "amenity": "ice_cream", "name": "Yoghurt House" }, "geometry": { "type": "Point", "coordinates": [ 123.9052925, 10.3287083 ] } },
{ "type": "Feature", "properties": { "amenity": "restaurant", "name": "Yamichan" }, "geometry": { "type": "Point", "coordinates": [ 123.9053696, 10.3288185 ] } },
{ "type": "Feature", "properties": { "amenity": "cafe", "name": "Zus Coffee" }, "geometry": { "type": "Point", "coordinates": [ 123.9068341, 10.3307283 ] } },
{ "type": "Feature", "properties": { "amenity": "restaurant", "name": "Tealive" }, "geometry": { "type": "Point", "coordinates": [ 123.9067134, 10.3308035 ] } },
{ "type": "Feature", "properties": { "amenity": "fast_food", "name": "Burger Joint" }, "geometry": { "type": "Point", "coordinates": [ 123.9066209, 10.3308536 ] } },
{ "type": "Feature", "properties": { "amenity": "restaurant", "name": "Big Brain Kasambagan" }, "geometry": { "type": "Point", "coordinates": [ 123.9137798, 10.3238652 ] } },
{ "type": "Feature", "properties": { "amenity": "restaurant", "name": "Sialo Cebu" }, "geometry": { "type": "Point", "coordinates": [ 123.9137848, 10.3244954 ] } },
{ "type": "Feature", "properties": { "amenity": "restaurant", "name": "Goa Nights" }, "geometry": { "type": "Point", "coordinates": [ 123.9085027, 10.3319523 ] } },
{ "type": "Feature", "properties": { "amenity": "food_court", "name": null }, "geometry": { "type": "Point", "coordinates": [ 123.9084582, 10.3291304 ] } },
{ "type": "Feature", "properties": { "amenity": "restaurant", "name": "Abaca Baking Company" }, "geometry": { "type": "Point", "coordinates": [ 123.9073573, 10.3305551 ] } },
{ "type": "Feature", "properties": { "amenity": "cafe", "name": "Common Ground" }, "geometry": { "type": "Point", "coordinates": [ 123.907324, 10.3304665 ] } },
{ "type": "Feature", "properties": { "amenity": "cafe", "name": "Bo's Coffee" }, "geometry": { "type": "Point", "coordinates": [ 123.9067191, 10.3310201 ] } },
{ "type": "Feature", "properties": { "amenity": "restaurant", "name": "Brique" }, "geometry": { "type": "Point", "coordinates": [ 123.9068019, 10.3309677 ] } },
{ "type": "Feature", "properties": { "amenity": "restaurant", "name": "Meatogether" }, "geometry": { "type": "Point", "coordinates": [ 123.9071619, 10.3305517 ] } },
{ "type": "Feature", "properties": { "amenity": "fast_food", "name": "Sbarro" }, "geometry": { "type": "Point", "coordinates": [ 123.9073121, 10.3303896 ] } },
{ "type": "Feature", "properties": { "amenity": "restaurant", "name": "Sumo Niku" }, "geometry": { "type": "Point", "coordinates": [ 123.9068596, 10.3309366 ] } },
{ "type": "Feature", "properties": { "amenity": "bar", "name": "The Sports Lounge by Buffalo Brad's" }, "geometry": { "type": "Point", "coordinates": [ 123.9069069, 10.3309057 ] } },
{ "type": "Feature", "properties": { "amenity": "cafe", "name": "Workplace Cafe" }, "geometry": { "type": "Point", "coordinates": [ 123.9067885, 10.3307793 ] } },
{ "type": "Feature", "properties": { "amenity": "restaurant", "name": "Ricos Lechon" }, "geometry": { "type": "Point", "coordinates": [ 123.9070684, 10.3306003 ] } },
{ "type": "Feature", "properties": { "amenity": "restaurant", "name": "Abaseria Deli & Cafe" }, "geometry": { "type": "Point", "coordinates": [ 123.9126818, 10.3263455 ] } },
{ "type": "Feature", "properties": { "amenity": "nightclub", "name": "Suits & Secrets" }, "geometry": { "type": "Point", "coordinates": [ 123.9093401, 10.3243486 ] } },
{ "type": "Feature", "properties": { "amenity": "doctors", "name": "Dr RMU" }, "geometry": { "type": "Point", "coordinates": [ 123.9095448, 10.324343 ] } },
{ "type": "Feature", "properties": { "amenity": "dancing_school", "name": "Knapsack" }, "geometry": { "type": "Point", "coordinates": [ 123.9090296, 10.3238927 ] } },
{ "type": "Feature", "properties": { "amenity": "restaurant", "name": "Mad Thai" }, "geometry": { "type": "Point", "coordinates": [ 123.9092783, 10.3242915 ] } },
{ "type": "Feature", "properties": { "amenity": "dentist", "name": "Metro Smile" }, "geometry": { "type": "Point", "coordinates": [ 123.9095857, 10.3243219 ] } },
{ "type": "Feature", "properties": { "amenity": "cafe", "name": "Coffee First" }, "geometry": { "type": "Point", "coordinates": [ 123.9099233, 10.3240423 ] } },
{ "type": "Feature", "properties": { "amenity": "veterinary", "name": "Animal Wellness Veterinary Hospital" }, "geometry": { "type": "Point", "coordinates": [ 123.9095624, 10.3238285 ] } },
{ "type": "Feature", "properties": { "amenity": "toilets", "name": null }, "geometry": { "type": "Point", "coordinates": [ 123.9093422, 10.3244523 ] } },
{ "type": "Feature", "properties": { "amenity": "fast_food", "name": "Zark's Burger" }, "geometry": { "type": "Point", "coordinates": [ 123.9056216, 10.330061 ] } },
{ "type": "Feature", "properties": { "amenity": "parking_entrance", "name": null }, "geometry": { "type": "Point", "coordinates": [ 123.9080542, 10.3309117 ] } },
{ "type": "Feature", "properties": { "amenity": "parking_entrance", "name": null }, "geometry": { "type": "Point", "coordinates": [ 123.9068767, 10.3311033 ] } },
{ "type": "Feature", "properties": { "amenity": "parking_entrance", "name": null }, "geometry": { "type": "Point", "coordinates": [ 123.9059809, 10.3325602 ] } },
{ "type": "Feature", "properties": { "amenity": "bar", "name": "Verified Rooftop Bar & Lounge" }, "geometry": { "type": "Point", "coordinates": [ 123.9065675, 10.325088 ] } }
]
}
