{"type": "FeatureCollection", "features": [{"type": "Feature", "geometry": {"type": "Point", "coordinates": [123.9632473, 10.3778511]}, "properties": {"id": 1596043238, "amenity_type": "hospital", "amenity": "Consolacion Community Doctors Inc. CCDI"}}, {"type": "Feature", "geometry": {"type": "Point", "coordinates": [123.9033159, 10.3374922]}, "properties": {"id": 4557994389, "amenity_type": "hospital", "amenity": "Camp Lapu-Lapu Army Station Hospital"}}, {"type": "Feature", "geometry": {"type": "Point", "coordinates": [123.9271891, 10.3238134]}, "properties": {"id": 6711171889, "amenity_type": "hospital", "amenity": "Mental hospital"}}, {"type": "Feature", "geometry": {"type": "Point", "coordinates": [123.9047573, 10.3100161]}, "properties": {"id": 7389981760, "amenity_type": "hospital", "amenity": "Bayanihan Cebu Field Center - SHS"}}, {"type": "Feature", "geometry": {"type": "Point", "coordinates": [123.8041193, 10.2490162]}, "properties": {"id": 8082916721, "amenity_type": "hospital", "amenity": "Minglanilla District Hospital"}}, {"type": "Feature", "geometry": {"type": "Point", "coordinates": [123.9544111, 10.3396634]}, "properties": {"id": 9047154317, "amenity_type": "hospital", "amenity": "The Hospital at Maayo"}}, {"type": "Feature", "geometry": {"type": "Point", "coordinates": [123.888146, 10.3166507]}, "properties": {"id": 9473335017, "amenity_type": "hospital", "amenity": "Supercare Cebu"}}, {"type": "Feature", "geometry": {"type": "Point", "coordinates": [123.9292989, 10.3414165]}, "properties": {"id": 10567964709, "amenity_type": "hospital", "amenity": "Women’s and Children’s Community Hospital"}}, {"type": "Feature", "geometry": {"type": "Point", "coordinates": [123.9542194, 10.3383581]}, "properties": {"id": 13821948063, "amenity_type": "hospital", "amenity": "The Hospital at Maayo"}}, {"type": "Feature", "geometry": {"type": "Point", "coordinates": [123.915138, 10.3471198]}, "properties": {"id": 123170673, "amenity_type": "hospital", "amenity": "Vicente Gullas Memorial Hospital"}}, {"type": "Feature", "geometry": {"type": "Point", "coordinates": [123.8923279, 10.3087503]}, "properties": {"id": 156273571, "amenity_type": "hospital", "amenity": "Cebu Maternity Hospital"}}, {"type": "Feature", "geometry": {"type": "Point", "coordinates": [123.8948046, 10.3020176]}, "properties": {"id": 156274043, "amenity_type": "hospital", "amenity": "Saint Vincent's General Hospital"}}, {"type": "Feature", "geometry": {"type": "Point", "coordinates": [123.9427931, 10.323425]}, "properties": {"id": 210155777, "amenity_type": "hospital", "amenity": "Mandaue City Hospital"}}, {"type": "Feature", "geometry": {"type": "Point", "coordinates": [123.9434626, 10.3291225]}, "properties": {"id": 290888378, "amenity_type": "hospital", "amenity": "Cortes General Hospital"}}, {"type": "Feature", "geometry": {"type": "Point", "coordinates": [123.8876669, 10.2960515]}, "properties": {"id": 290897615, "amenity_type": "hospital", "amenity": "Adventist Hospital - Cebu"}}, {"type": "Feature", "geometry": {"type": "Point", "coordinates": [123.9514822, 10.3346574]}, "properties": {"id": 346433103, "amenity_type": "hospital", "amenity": "Amosup Seamens Hospital"}}, {"type": "Feature", "geometry": {"type": "Point", "coordinates": [123.9682693, 10.3817943]}, "properties": {"id": 374382271, "amenity_type": "hospital", "amenity": "Mendero Medical Center"}}, {"type": "Feature", "geometry": {"type": "Point", "coordinates": [123.8385335, 10.2537063]}, "properties": {"id": 401890728, "amenity_type": "hospital", "amenity": "Cebu South Medical Center"}}, {"type": "Feature", "geometry": {"type": "Point", "coordinates": [123.8710002, 10.2863636]}, "properties": {"id": 469002266, "amenity_type": "hospital", "amenity": "Saint Anthony Mother and Child Hospital"}}, {"type": "Feature", "geometry": {"type": "Point", "coordinates": [123.9507694, 10.3015221]}, "properties": {"id": 574663435, "amenity_type": "hospital", "amenity": "Lapu-Lapu District Hospital"}}, {"type": "Feature", "geometry": {"type": "Point", "coordinates": [123.9316302, 10.3227685]}, "properties": {"id": 610106337, "amenity_type": "hospital", "amenity": "Chong Hua Hospital Mandaue"}}, {"type": "Feature", "geometry": {"type": "Point", "coordinates": [123.8968479, 10.3076881]}, "properties": {"id": 611916620, "amenity_type": "hospital", "amenity": "Cebu Velez General Hospital"}}, {"type": "Feature", "geometry": {"type": "Point", "coordinates": [123.8921655, 10.3035907]}, "properties": {"id": 612407069, "amenity_type": "hospital", "amenity": "SWU PHINMA Hospital"}}, {"type": "Feature", "geometry": {"type": "Point", "coordinates": [123.9898077, 10.2822877]}, "properties": {"id": 787493801, "amenity_type": "hospital", "amenity": "Mactan Med Hospital"}}, {"type": "Feature", "geometry": {"type": "Point", "coordinates": [123.8119266, 10.2557698]}, "properties": {"id": 807286244, "amenity_type": "hospital", "amenity": "Baking Medical Center"}}, {"type": "Feature", "geometry": {"type": "Point", "coordinates": [123.9472665, 10.3048146]}, "properties": {"id": 819142592, "amenity_type": "hospital", "amenity": "Tojong Maternity & General Hospital"}}, {"type": "Feature", "geometry": {"type": "Point", "coordinates": [123.7984721, 10.2422396]}, "properties": {"id": 854148465, "amenity_type": "hospital", "amenity": "San Lucas Medical"}}, {"type": "Feature", "geometry": {"type": "Point", "coordinates": [123.8712612, 10.2864602]}, "properties": {"id": 854173536, "amenity_type": "hospital", "amenity": "Saint Anthony Mother and Child Hospital"}}, {"type": "Feature", "geometry": {"type": "Point", "coordinates": [123.95416, 10.3658363]}, "properties": {"id": 898099403, "amenity_type": "hospital", "amenity": "Eversley Child Sanitarium and General Hospital"}}, {"type": "Feature", "geometry": {"type": "Point", "coordinates": [123.9304492, 10.3207698]}, "properties": {"id": 935225355, "amenity_type": "hospital", "amenity": "University of Cebu Medical Center"}}, {"type": "Feature", "geometry": {"type": "Point", "coordinates": [123.8915075, 10.2974162]}, "properties": {"id": 1330059248, "amenity_type": "hospital", "amenity": "Cebu City Medical Center"}}, {"type": "Feature", "geometry": {"type": "Point", "coordinates": [123.8631929, 10.2871203]}, "properties": {"id": 1361864477, "amenity_type": "hospital", "amenity": "ACE Medical Center - Cebu"}}, {"type": "Feature", "geometry": {"type": "Point", "coordinates": [123.9667336, 10.290173]}, "properties": {"id": 1413372769, "amenity_type": "hospital", "amenity": "Unnamed hospital"}}, {"type": "Feature", "geometry": {"type": "Point", "coordinates": [124.0604628, 10.2705797]}, "properties": {"id": 1417137675, "amenity_type": "hospital", "amenity": "Santa Rosa Community Hospital"}}, {"type": "Feature", "geometry": {"type": "Point", "coordinates": [123.8951101, 10.3064587]}, "properties": {"id": 1418853452, "amenity_type": "hospital", "amenity": "VisayasMed Hospital"}}, {"type": "Feature", "geometry": {"type": "Point", "coordinates": [123.954087, 10.3104008]}, "properties": {"id": 1420297877, "amenity_type": "hospital", "amenity": "Our Lady of the Rule Maternity and General Hospital"}}, {"type": "Feature", "geometry": {"type": "Point", "coordinates": [123.9710291, 10.3163376]}, "properties": {"id": 8448182, "amenity_type": "hospital", "amenity": "PAF Hospital"}}, {"type": "Feature", "geometry": {"type": "Point", "coordinates": [123.8922238, 10.3140477]}, "properties": {"id": 12661604, "amenity_type": "hospital", "amenity": "Cebu Doctors' University Hospital"}}, {"type": "Feature", "geometry": {"type": "Point", "coordinates": [123.8916528, 10.307831]}, "properties": {"id": 17012112, "amenity_type": "hospital", "amenity": "Vicente Sotto Memorial Medical Center"}}, {"type": "Feature", "geometry": {"type": "Point", "coordinates": [123.8912003, 10.3100482]}, "properties": {"id": 17697806, "amenity_type": "hospital", "amenity": "Chong Hua Hospital"}}, {"type": "Feature", "geometry": {"type": "Point", "coordinates": [123.8995888, 10.3148392]}, "properties": {"id": 18219761, "amenity_type": "hospital", "amenity": "Perpetual Succour Hospital"}}, {"type": "Feature", "geometry": {"type": "Point", "coordinates": [123.9145561, 10.3732027]}, "properties": {"id": 19083653, "amenity_type": "hospital", "amenity": "North General Hospital"}}]}