{"type": "FeatureCollection", "features": [{"type": "Feature", "geometry": {"type": "Point", "coordinates": [123.9157072, 10.3125796]}, "properties": {"id": 355114301, "amenity_type": "police", "amenity": "Station 4"}}, {"type": "Feature", "geometry": {"type": "Point", "coordinates": [123.9499382, 10.3044119]}, "properties": {"id": 2083641600, "amenity_type": "police", "amenity": "Unnamed security"}}, {"type": "Feature", "geometry": {"type": "Point", "coordinates": [123.8768133, 10.2923444]}, "properties": {"id": 2179308109, "amenity_type": "police", "amenity": "Police Station 11"}}, {"type": "Feature", "geometry": {"type": "Point", "coordinates": [123.9570668, 10.3770785]}, "properties": {"id": 2943053856, "amenity_type": "police", "amenity": "Consolacion Police Station"}}, {"type": "Feature", "geometry": {"type": "Point", "coordinates": [123.9057403, 10.4147342]}, "properties": {"id": 3674495358, "amenity_type": "police", "amenity": "Barangay Binaliw Tanod Outpost"}}, {"type": "Feature", "geometry": {"type": "Point", "coordinates": [123.8849442, 10.3192914]}, "properties": {"id": 4295550686, "amenity_type": "police", "amenity": "Police Station 9"}}, {"type": "Feature", "geometry": {"type": "Point", "coordinates": [123.950076, 10.3546639]}, "properties": {"id": 4400589789, "amenity_type": "police", "amenity": "Barangay Basak Police Station"}}, {"type": "Feature", "geometry": {"type": "Point", "coordinates": [123.9742539, 10.3244744]}, "properties": {"id": 4795960628, "amenity_type": "police", "amenity": "Lapulapu Police City Station № 5"}}, {"type": "Feature", "geometry": {"type": "Point", "coordinates": [123.9752055, 10.2757425]}, "properties": {"id": 4795961231, "amenity_type": "police", "amenity": "Lapu-Lapu City Police Station 4"}}, {"type": "Feature", "geometry": {"type": "Point", "coordinates": [123.9980698, 10.286837]}, "properties": {"id": 6231448124, "amenity_type": "police", "amenity": "Tourism Police"}}, {"type": "Feature", "geometry": {"type": "Point", "coordinates": [123.880987, 10.2991508]}, "properties": {"id": 7242908857, "amenity_type": "police", "amenity": "Police Station 10"}}, {"type": "Feature", "geometry": {"type": "Point", "coordinates": [123.8556593, 10.2797784]}, "properties": {"id": 7350242285, "amenity_type": "police", "amenity": "Pardo Police Station"}}, {"type": "Feature", "geometry": {"type": "Point", "coordinates": [123.9084971, 10.3308715]}, "properties": {"id": 8651853173, "amenity_type": "police", "amenity": "Unnamed security"}}, {"type": "Feature", "geometry": {"type": "Point", "coordinates": [123.9061569, 10.3272904]}, "properties": {"id": 8651853178, "amenity_type": "police", "amenity": "Unnamed security"}}, {"type": "Feature", "geometry": {"type": "Point", "coordinates": [123.9083259, 10.3138244]}, "properties": {"id": 9840948865, "amenity_type": "police", "amenity": "Mabolo Police Station 4"}}, {"type": "Feature", "geometry": {"type": "Point", "coordinates": [123.8981345, 10.3309735]}, "properties": {"id": 12498700428, "amenity_type": "police", "amenity": "Police outpost"}}, {"type": "Feature", "geometry": {"type": "Point", "coordinates": [123.9313602, 10.3446882]}, "properties": {"id": 12535636626, "amenity_type": "police", "amenity": "Mandaue City Police Office - Police Station 4"}}, {"type": "Feature", "geometry": {"type": "Point", "coordinates": [123.9791108, 10.2992969]}, "properties": {"id": 12805638452, "amenity_type": "police", "amenity": "Unnamed security"}}, {"type": "Feature", "geometry": {"type": "Point", "coordinates": [123.9013349, 10.2934758]}, "properties": {"id": 249316289, "amenity_type": "police", "amenity": "Cebu City Tourist Police Unit"}}, {"type": "Feature", "geometry": {"type": "Point", "coordinates": [123.9651914, 10.3177189]}, "properties": {"id": 299451465, "amenity_type": "police", "amenity": "Lapu-Lapu City Police Office"}}, {"type": "Feature", "geometry": {"type": "Point", "coordinates": [123.9645168, 10.317091]}, "properties": {"id": 299453042, "amenity_type": "police", "amenity": "SWAT"}}, {"type": "Feature", "geometry": {"type": "Point", "coordinates": [123.9571865, 10.3047734]}, "properties": {"id": 372012366, "amenity_type": "police", "amenity": "Lapu-lapu Police Station 3"}}, {"type": "Feature", "geometry": {"type": "Point", "coordinates": [123.8956047, 10.3021741]}, "properties": {"id": 425879061, "amenity_type": "police", "amenity": "Fuente Police Station"}}, {"type": "Feature", "geometry": {"type": "Point", "coordinates": [123.8845471, 10.3205346]}, "properties": {"id": 430280494, "amenity_type": "police", "amenity": "Guadalupe Police Station"}}, {"type": "Feature", "geometry": {"type": "Point", "coordinates": [123.9421321, 10.3247758]}, "properties": {"id": 459318987, "amenity_type": "police", "amenity": "Mandaue City Police Office"}}, {"type": "Feature", "geometry": {"type": "Point", "coordinates": [123.9168374, 10.3697823]}, "properties": {"id": 628152561, "amenity_type": "police", "amenity": "Talamban Police Station"}}, {"type": "Feature", "geometry": {"type": "Point", "coordinates": [123.9498208, 10.3108406]}, "properties": {"id": 853708376, "amenity_type": "police", "amenity": "Lapu-lapu City Police Station № 3"}}, {"type": "Feature", "geometry": {"type": "Point", "coordinates": [123.8484701, 10.2425284]}, "properties": {"id": 860690868, "amenity_type": "police", "amenity": "Talisay City Police Station"}}, {"type": "Feature", "geometry": {"type": "Point", "coordinates": [123.9339416, 10.3259542]}, "properties": {"id": 921890768, "amenity_type": "police", "amenity": "Mandaue SWAT"}}, {"type": "Feature", "geometry": {"type": "Point", "coordinates": [123.9069765, 10.2931228]}, "properties": {"id": 1044378547, "amenity_type": "police", "amenity": "Police Station 3"}}, {"type": "Feature", "geometry": {"type": "Point", "coordinates": [123.7962563, 10.2448447]}, "properties": {"id": 1073569274, "amenity_type": "police", "amenity": "Minglanilla Municipal Police Station"}}, {"type": "Feature", "geometry": {"type": "Point", "coordinates": [123.8587062, 10.3932514]}, "properties": {"id": 1081720876, "amenity_type": "police", "amenity": "Unnamed security"}}, {"type": "Feature", "geometry": {"type": "Point", "coordinates": [123.8564555, 10.2701151]}, "properties": {"id": 1158588596, "amenity_type": "police", "amenity": "Inayawan Police Station"}}, {"type": "Feature", "geometry": {"type": "Point", "coordinates": [123.8810218, 10.2992326]}, "properties": {"id": 1315480897, "amenity_type": "police", "amenity": "Unnamed security"}}, {"type": "Feature", "geometry": {"type": "Point", "coordinates": [123.9002767, 10.2911799]}, "properties": {"id": 1347082103, "amenity_type": "police", "amenity": "Cebu City Police Station 5 - Carbon Police Station"}}, {"type": "Feature", "geometry": {"type": "Point", "coordinates": [123.8216066, 10.2584685]}, "properties": {"id": 1384515043, "amenity_type": "police", "amenity": "Lawaan Police Community Precinct"}}, {"type": "Feature", "geometry": {"type": "Point", "coordinates": [123.8913577, 10.292208]}, "properties": {"id": 1418598001, "amenity_type": "police", "amenity": "San Nicolas Police Station 8"}}, {"type": "Feature", "geometry": {"type": "Point", "coordinates": [123.9031461, 10.2993449]}, "properties": {"id": 1419082387, "amenity_type": "police", "amenity": "Parian Police Station"}}, {"type": "Feature", "geometry": {"type": "Point", "coordinates": [123.9037779, 10.312542]}, "properties": {"id": 1419100261, "amenity_type": "police", "amenity": "Cebu City Police Office"}}, {"type": "Feature", "geometry": {"type": "Point", "coordinates": [123.9037034, 10.313225]}, "properties": {"id": 1419100265, "amenity_type": "police", "amenity": "Cebu City Highway Patrol Group"}}, {"type": "Feature", "geometry": {"type": "Point", "coordinates": [123.942657, 10.3229837]}, "properties": {"id": 1422944993, "amenity_type": "police", "amenity": "Mandaue City Police Station № 1"}}, {"type": "Feature", "geometry": {"type": "Point", "coordinates": [123.8935642, 10.3310624]}, "properties": {"id": 19416428, "amenity_type": "police", "amenity": "Philippine Drug Enforcement Agency Regional Office Ⅶ"}}, {"type": "Feature", "geometry": {"type": "Point", "coordinates": [123.9158122, 10.3123991]}, "properties": {"id": 413986555, "amenity_type": "fire_station", "amenity": "Mabolo Fire Sub Station"}}, {"type": "Feature", "geometry": {"type": "Point", "coordinates": [123.8840279, 10.3225897]}, "properties": {"id": 3684253277, "amenity_type": "fire_station", "amenity": "Guadalupe Fire Sub Station"}}, {"type": "Feature", "geometry": {"type": "Point", "coordinates": [123.9275158, 10.3332101]}, "properties": {"id": 3700882547, "amenity_type": "fire_station", "amenity": "Tipolo Fire Station"}}, {"type": "Feature", "geometry": {"type": "Point", "coordinates": [123.9640452, 10.301045]}, "properties": {"id": 3722770019, "amenity_type": "fire_station", "amenity": "MEPZ II Fire Station"}}, {"type": "Feature", "geometry": {"type": "Point", "coordinates": [123.9805059, 10.3264834]}, "properties": {"id": 3722770020, "amenity_type": "fire_station", "amenity": "MEPZ I Fire Station"}}, {"type": "Feature", "geometry": {"type": "Point", "coordinates": [123.8289847, 10.2533605]}, "properties": {"id": 4283597999, "amenity_type": "fire_station", "amenity": "Talisay City Fire Station"}}, {"type": "Feature", "geometry": {"type": "Point", "coordinates": [123.9500406, 10.3545172]}, "properties": {"id": 4552061445, "amenity_type": "fire_station", "amenity": "Basak Mandaue Fire Sub-Station"}}, {"type": "Feature", "geometry": {"type": "Point", "coordinates": [123.8704696, 10.2861537]}, "properties": {"id": 4634282011, "amenity_type": "fire_station", "amenity": "Barangay Basak San Nicolas Fire Station"}}, {"type": "Feature", "geometry": {"type": "Point", "coordinates": [123.9589605, 10.3052591]}, "properties": {"id": 6669486363, "amenity_type": "fire_station", "amenity": "Lapu-lapu City Fire District Station 3"}}, {"type": "Feature", "geometry": {"type": "Point", "coordinates": [123.7961509, 10.2441111]}, "properties": {"id": 7203748585, "amenity_type": "fire_station", "amenity": "Minglanilla Fire Station"}}, {"type": "Feature", "geometry": {"type": "Point", "coordinates": [123.8811828, 10.2991016]}, "properties": {"id": 8689657237, "amenity_type": "fire_station", "amenity": "Labangon Station"}}, {"type": "Feature", "geometry": {"type": "Point", "coordinates": [123.9083223, 10.3139372]}, "properties": {"id": 9840875994, "amenity_type": "fire_station", "amenity": "Cebu Business Park Fire Substation"}}, {"type": "Feature", "geometry": {"type": "Point", "coordinates": [123.985492, 10.3097733]}, "properties": {"id": 11469841170, "amenity_type": "fire_station", "amenity": "Unnamed security"}}, {"type": "Feature", "geometry": {"type": "Point", "coordinates": [123.8891794, 10.3105553]}, "properties": {"id": 13033223830, "amenity_type": "fire_station", "amenity": "Cebu Filipino-Chinese Volunteers Fire Brigade"}}, {"type": "Feature", "geometry": {"type": "Point", "coordinates": [123.8921712, 10.2980275]}, "properties": {"id": 13036674817, "amenity_type": "fire_station", "amenity": "Pahina Central Fire Sub-station"}}, {"type": "Feature", "geometry": {"type": "Point", "coordinates": [123.9442744, 10.2865734]}, "properties": {"id": 13051525615, "amenity_type": "fire_station", "amenity": "Lapulapu Fire District Station 3"}}, {"type": "Feature", "geometry": {"type": "Point", "coordinates": [123.9034689, 10.2993367]}, "properties": {"id": 231977167, "amenity_type": "fire_station", "amenity": "Pari-an Fire Station"}}, {"type": "Feature", "geometry": {"type": "Point", "coordinates": [123.9589276, 10.3052247]}, "properties": {"id": 299410022, "amenity_type": "fire_station", "amenity": "Lapu-lapu City Fire District 1"}}, {"type": "Feature", "geometry": {"type": "Point", "coordinates": [123.9641967, 10.3170566]}, "properties": {"id": 299453033, "amenity_type": "fire_station", "amenity": "ERUF"}}, {"type": "Feature", "geometry": {"type": "Point", "coordinates": [123.9754617, 10.2759334]}, "properties": {"id": 364382171, "amenity_type": "fire_station", "amenity": "Marigondon Fire Station"}}, {"type": "Feature", "geometry": {"type": "Point", "coordinates": [123.8985099, 10.3242633]}, "properties": {"id": 364849552, "amenity_type": "fire_station", "amenity": "Lahug Fire Sub-Station"}}, {"type": "Feature", "geometry": {"type": "Point", "coordinates": [124.0111252, 10.3090525]}, "properties": {"id": 364953658, "amenity_type": "fire_station", "amenity": "Lapu-Lapu Fire Station 5"}}, {"type": "Feature", "geometry": {"type": "Point", "coordinates": [123.9489555, 10.310381]}, "properties": {"id": 364956529, "amenity_type": "fire_station", "amenity": "Lapu-lapu City Fire Station 2"}}, {"type": "Feature", "geometry": {"type": "Point", "coordinates": [123.891465, 10.2922596]}, "properties": {"id": 365230622, "amenity_type": "fire_station", "amenity": "San Nicolas Fire Sub Station"}}, {"type": "Feature", "geometry": {"type": "Point", "coordinates": [123.9167798, 10.3698667]}, "properties": {"id": 584071035, "amenity_type": "fire_station", "amenity": "Talamban Fire Station"}}, {"type": "Feature", "geometry": {"type": "Point", "coordinates": [123.8919847, 10.2977704]}, "properties": {"id": 629064435, "amenity_type": "fire_station", "amenity": "Cebu City Fire Station"}}, {"type": "Feature", "geometry": {"type": "Point", "coordinates": [123.9050058, 10.3371316]}, "properties": {"id": 682052708, "amenity_type": "fire_station", "amenity": "Apas Fire Sub Station"}}, {"type": "Feature", "geometry": {"type": "Point", "coordinates": [123.8482073, 10.2425498]}, "properties": {"id": 860690872, "amenity_type": "fire_station", "amenity": "Poblacion Fire Sub-Station"}}, {"type": "Feature", "geometry": {"type": "Point", "coordinates": [123.9073772, 10.3153837]}, "properties": {"id": 1185921394, "amenity_type": "fire_station", "amenity": "CBP Fire Station"}}, {"type": "Feature", "geometry": {"type": "Point", "coordinates": [123.9576201, 10.3759971]}, "properties": {"id": 1189760733, "amenity_type": "fire_station", "amenity": "Consolacion Fire Station"}}, {"type": "Feature", "geometry": {"type": "Point", "coordinates": [124.0598032, 10.2712379]}, "properties": {"id": 1417137663, "amenity_type": "fire_station", "amenity": "Olango Fire Station"}}, {"type": "Feature", "geometry": {"type": "Point", "coordinates": [123.9423449, 10.3243593]}, "properties": {"id": 19451165, "amenity_type": "fire_station", "amenity": "Mandaue City Fire Department"}}]}